satname,norad_id,inclination_deg,eccentricity,mean_motion_rev_per_day,perigee_km,apogee_km,l1,l2
STARLINK-1573,46061,53.1586,0.0001323,15.31691033,469.86061555356264,471.6728354793331,1 46061U 20055AL  26186.31224808  .00005434  00000+0  18679-3 0  9999,2 46061  53.1586 286.6317 0001323 107.1331 252.9815 15.31691033327090
STARLINK-1577,46063,53.1604,9.87e-05,15.31709089,470.03692003829656,471.3888830088563,1 46063U 20055AN  26186.27495868  .00004477  00000+0  15590-3 0  9997,2 46063  53.1604 286.8006 0000987  76.5897 283.5215 15.31709089327085
STARLINK-1583,46064,53.1592,9.12e-05,15.31722909,470.0470941859394,471.2963168938286,1 46064U 20055AP  26185.57124967  .00009534  00000+0  31838-3 0  9991,2 46064  53.1592 290.5794 0000912  95.2596 264.8509 15.31722909326960
STARLINK-1536,46070,53.1586,0.0001147,15.31668306,470.04889799139255,471.6200520477614,1 46070U 20055AV  26186.22507605 -.00004437  00000+0 -13144-3 0  9994,2 46070  53.1586 274.9227 0001147  79.4134 280.6996 15.31668306327248
STARLINK-1542,46073,53.159,9.64e-05,15.31718936,470.0233222756433,471.3437748774095,1 46073U 20055AY  26185.53165987  .00009602  00000+0  32060-3 0  9998,2 46073  53.1590 281.1171 0000964  92.3789 267.7323 15.31718936327087
STARLINK-1549,46074,53.0481,0.0002068,15.33978345,462.54182979932375,465.37171978457627,1 46074U 20055AZ  26186.27233040  .00086734  00000+0  25827-2 0  9990,2 46074  53.0481 274.4873 0002068 341.4542  18.6383 15.33978345327221
STARLINK-1551,46075,53.1581,8.94e-05,15.3169541,470.14138698437546,471.3659686375677,1 46075U 20055BA  26186.28131548  .00003070  00000+0  11066-3 0  9995,2 46075  53.1581 274.5953 0000894  83.2521 276.8582 15.31695410327245
STARLINK-1552,46076,53.1582,9.33e-05,15.31718955,470.0444969877826,471.3224868915795,1 46076U 20055BB  26186.26726325  .00006804  00000+0  23069-3 0  9991,2 46076  53.1582 274.2446 0000933  81.0346 279.0761 15.31718955327239
STARLINK-1559,46077,53.0208,0.0004126,15.41062749,440.1571395283445,445.78591828639946,1 46077U 20055BC  26186.57633240  .00043581  00000+0  10423-2 0  9991,2 46077  53.0208 240.3057 0004126  11.6162 348.4936 15.41062749327698
STARLINK-1566,46079,53.1584,0.0001196,15.31708977,469.89411289831423,471.53235787461927,1 46079U 20055BE  26186.27190788  .00004220  00000+0  14763-3 0  9994,2 46079  53.1584 274.0771 0001196  94.5030 265.6108 15.31708977327255
STARLINK-1568,46080,53.0557,0.0003135,15.56723596,395.0229203598901,399.2710234102624,1 46080U 20055BF  26186.37876389  .00064178  00000+0  88177-3 0  9993,2 46080  53.0557 187.1087 0003135  80.1950 279.9415 15.56723596328461
STARLINK-1578,46082,53.1586,0.0001068,15.31706046,469.99051433527893,471.45343061179847,1 46082U 20055BH  26186.27630112  .00004241  00000+0  14833-3 0  9999,2 46082  53.1586 274.5738 0001068  85.1390 274.9733 15.31706046327243
STARLINK-1579,46083,53.1575,8.76e-05,15.31734815,470.03626295432423,471.23616802167817,1 46083U 20055BJ  26185.67536013  .00037474  00000+0  12120-2 0  9998,2 46083  53.1575 276.9039 0000876  71.1231 288.9866 15.31734815327154
STARLINK-1622,46128,53.0096,0.000818,16.00893083,266.50455055978364,277.38408359452205,1 46128U 20057M   26186.47525238  .00600928  17347-3  10891-2 0  9995,2 46128  53.0096 354.8986 0008180 277.4703  82.5397 16.00893083325952
STARLINK-1623,46129,53.0371,0.0002613,15.83433017,318.9902012326256,322.4910346757679,1 46129U 20057N   26186.66670139  .00185490  00000+0  81929-3 0  9995,2 46129  53.0371  34.8740 0002613 187.2810 175.5756 15.83433017  5699
STARLINK-1596,46141,53.0328,0.000313,15.64867672,371.5060599068056,375.7326593879443,1 46141U 20057AA  26186.00003471  .00143346  00000+0  14205-2 0  9992,2 46141  53.0328  23.9423 0003130 157.7069  83.3559 15.64867672  5958
STARLINK-1597,46142,53.0366,0.0003973,15.82281964,321.32626391879694,326.6517732531647,1 46142U 20057AB  26186.58336806  .00280658  00000+0  12922-2 0  9999,2 46142  53.0366  75.1463 0003973 171.7007 156.4794 15.82281964  5987
STARLINK-1608,46146,53.157,0.0005418,15.38682943,446.303481912335,453.7024543818188,1 46146U 20057AF  26186.09200594  .00049181  00000+0  12694-2 0  9993,2 46146  53.1570 121.2731 0005418  70.5098 289.6491 15.38682943324195
STARLINK-1545,46156,53.0304,0.0008749,16.08935084,243.96749481487586,255.56499991711644,1 46156U 20057AR  26186.67571933  .00978118  55533-3  10863-2 0  9998,2 46156  53.0304  28.8298 0008749 273.7257  86.2775 16.08935084326759
STARLINK-1595,46159,53.0368,0.0004225,15.79420063,329.24765285493413,334.9177885189147,1 46159U 20057AU  26186.58336806  .00230063  00000+0  12159-2 0  9994,2 46159  53.0368  78.3936 0004225 151.8965 115.9205 15.79420063  5988
STARLINK-1598,46160,53.042,0.0001834,15.78225891,334.23589837937834,336.69844839017514,1 46160U 20057AV  26186.66670139  .00104946  00000+0  59618-3 0  9997,2 46160  53.0420  64.2841 0001834 249.6897 209.7016 15.78225891  5995
STARLINK-1626,46167,53.0362,0.0004025,15.83016294,319.2194309499391,324.61297377784194,1 46167U 20057BC  26186.58336806  .00255235  00000+0  11390-2 0  9997,2 46167  53.0362  73.3527 0004025 217.6374 215.5721 15.83016294  6045
STARLINK-1633,46171,53.028,0.0008566,15.96369303,278.79447675735264,290.2089093663071,1 46171U 20057BG  26186.58336806  .00411662  79903-4  96387-3 0  9993,2 46171  53.0280  32.3410 0008566 264.4706  33.7631 15.96369303  6066
STARLINK-1635,46172,53.0235,0.0015106,16.24949025,196.2026759760911,216.095120531897,1 46172U 20057BH  26186.78611057  .02728734  11942-4  89223-3 0  9993,2 46172  53.0235  26.7900 0015106 271.3570  88.5739 16.24949025326791
STARLINK-1640,46173,53.0372,0.0003646,15.79612108,329.0924881882993,333.98518380790847,1 46173U 20057BJ  26186.58336806  .00234107  00000+0  12260-2 0  9996,2 46173  53.0372  79.4044 0003646 150.5269 281.3903 15.79612108  5997
STARLINK-1641,46174,53.0441,0.0002656,15.67630751,363.8921820834212,367.4744994484372,1 46174U 20057BK  26186.66670139  .00044479  00000+0  40279-3 0  9999,2 46174  53.0441  72.8825 0002656 213.9606 330.5904 15.67630751  5964
STARLINK-1695,46329,53.0384,0.0003077,15.83051528,319.7552107630954,323.87836232333484,1 46329U 20062E   26186.58336806  .00199501  00000+0  89541-3 0  9990,2 46329  53.0384 116.2490 0003077 197.0616  94.8930 15.83051528  5993
STARLINK-1719,46331,53.0323,0.000389,15.93358395,290.29744253708395,295.4875034670795,1 46331U 20062G   26186.66670139  .00391194  70571-4  10806-2 0  9996,2 46331  53.0323 113.7133 0003890 180.3006  76.1082 15.93358395  5923
